STARLINK-30587          
1 58064U 23158P   26068.30103570 -.00001058  00000+0 -28926-4 0  9999
2 58064  43.0018  28.9739 0000601 248.2476 111.8312 15.27574217133510
HAWK-11C                
1 62381U 24247E   26068.51221537  .00009223  00000+0  33290-3 0  9992
2 62381  45.0045 114.8762 0005900 329.7040  30.3502 15.28848020 67743
